NORAD_CAT_ID,OBJECT_NAME,OBJECT_TYPE,EPOCH,MEAN_MOTION,ECCENTRICITY,INCLINATION,RA_OF_ASC_NODE,ARG_OF_PERICENTER,MEAN_ANOMALY,BSTAR,MEAN_MOTION_DOT,MEAN_MOTION_DDOT,TLE_LINE0,TLE_LINE1,TLE_LINE2,SEMIMAJOR_AXIS,PERIOD,APOGEE,PERIGEE,DECAYED
52996.0,STARLINK-4295,PAYLOAD,2022-12-08 19:22:15,15.08844353,0.0002867,53.2179,22.2542,26.5281,333.5857,0.00023377,3.434e-05,0.0,0 STARLINK-4295,1 52996U 22076L   22342.80712464  .00003434  00000-0  23377-3 0  9992,2 52996  53.2179  22.2542 0002867  26.5281 333.5857 15.08844353 24139,6917.8669999999975,95.437,541.715,537.749,0.0
52996.0,STARLINK-4295,PAYLOAD,2022-12-09 19:13:02,15.08835838,0.0001985,53.2185,17.7946,3.7562,356.3445,2.088e-05,4.4e-07,0.0,0 STARLINK-4295,1 52996U 22076L   22343.80072518  .00000044  00000-0  20880-4 0  9993,2 52996  53.2185  17.7946 0001985   3.7562 356.3445 15.08835838 24282,6917.893,95.438,541.131,538.385,0.0
52996.0,STARLINK-4295,PAYLOAD,2022-12-10 11:06:54,15.08827577,0.0002664,53.2186,14.8217,20.7189,339.391,-0.00021759,-3.749e-05,0.0,0 STARLINK-4295,1 52996U 22076L   22344.46313101 -.00003749  00000-0 -21759-3 0  9994,2 52996  53.2186  14.8217 0002664  20.7189 339.3910 15.08827577 24381,6917.918000000002,95.438,541.626,537.94,0.0
52996.0,STARLINK-4295,PAYLOAD,2022-12-10 12:42:17,15.08835859,0.0002565,53.2189,14.5239,8.3202,351.7833,-9.0977e-05,-1.736e-05,0.0,0 STARLINK-4295,1 52996U 22076L   22344.52936520 -.00001736  00000-0 -90977-4 0  9990,2 52996  53.2189  14.5239 0002565   8.3202 351.7833 15.08835859 23926,6917.893,95.438,541.5319999999998,537.984,0.0
52996.0,STARLINK-4295,PAYLOAD,2022-12-11 10:57:42,15.08831015,0.0002994,53.2186,10.3602,30.2332,329.8833,0.00028824,4.301e-05,0.0,0 STARLINK-4295,1 52996U 22076L   22345.45674329  .00004301  00000-0  28824-3 0  9999,2 52996  53.2186  10.3602 0002994  30.2332 329.8833 15.08831015 24539,6917.908,95.438,541.844,537.702,0.0
52996.0,STARLINK-4295,PAYLOAD,2022-12-12 10:48:30,15.08829247,0.0003102,53.2186,5.9003,29.1066,331.0098,2.0056e-05,3e-07,0.0,0 STARLINK-4295,1 52996U 22076L   22346.45034742  .00000030  00000-0  20056-4 0  9994,2 52996  53.2186   5.9003 0003102  29.1066 331.0098 15.08829247 24214,6917.913000000001,95.438,541.924,537.632,0.0
52996.0,STARLINK-4295,PAYLOAD,2022-12-13 10:39:17,15.08844039,0.0003296,53.2188,1.4397,29.0512,331.0663,-5.8914e-05,-1.227e-05,0.0,0 STARLINK-4295,1 52996U 22076L   22347.44394717 -.00001227  00000-0 -58914-4 0  9990,2 52996  53.2188   1.4397 0003296  29.0512 331.0663 15.08844039 24362,6917.868,95.437,542.013,537.453,0.0
52996.0,STARLINK-4295,PAYLOAD,2022-12-14 10:30:03,15.08849414,0.0003129,53.2187,356.9791,30.9012,329.2164,0.00026885,3.994e-05,0.0,0 STARLINK-4295,1 52996U 22076L   22348.43754494  .00003994  00000-0  26885-3 0  9994,2 52996  53.2187 356.9791 0003129  30.9012 329.2164 15.08849414 24512,6917.852,95.437,541.881,537.552,0.0
52996.0,STARLINK-4295,PAYLOAD,2022-12-15 02:23:55,15.08849463,0.0003221,53.2176,354.0045,28.9591,331.1579,0.00014816,2.071e-05,0.0,0 STARLINK-4295,1 52996U 22076L   22349.09994353  .00002071  00000-0  14816-3 0  9993,2 52996  53.2176 354.0045 0003221  28.9591 331.1579 15.08849463 25082,6917.851,95.437,541.945,537.488,0.0
52996.0,STARLINK-4295,PAYLOAD,2022-12-15 10:20:51,15.08840246,0.0003091,53.219,352.5176,30.7694,329.3479,6.7965e-05,7.93e-06,0.0,0 STARLINK-4295,1 52996U 22076L   22349.43114640  .00000793  00000-0  67965-4 0  9997,2 52996  53.2190 352.5176 0003091  30.7694 329.3479 15.08840246 25130,6917.88,95.438,541.883,537.606,0.0
52996.0,STARLINK-4295,PAYLOAD,2022-12-15 11:56:13,15.08844449,0.0003101,53.219,352.2203,31.0614,329.0561,8.2814e-05,1.03e-05,0.0,0 STARLINK-4295,1 52996U 22076L   22349.49738336  .00001030  00000-0  82814-4 0  9992,2 52996  53.2190 352.2203 0003101  31.0614 329.0561 15.08844449 24672,6917.8669999999975,95.437,541.877,537.587,0.0
52996.0,STARLINK-4295,PAYLOAD,2022-12-16 02:14:41,15.08852286,0.000297,53.2187,349.5437,30.5411,329.5753,6.8021e-05,7.94e-06,0.0,0 STARLINK-4295,1 52996U 22076L   22350.09353317  .00000794  00000-0  68021-4 0  9992,2 52996  53.2187 349.5437 0002970  30.5411 329.5753 15.08852286 25237,6917.843000000003,95.437,541.762,537.653,0.0
52996.0,STARLINK-4295,PAYLOAD,2022-12-16 10:11:36,15.08861828,0.000298,53.2184,348.0581,27.4796,332.6354,-0.00017902,-3.139e-05,0.0,0 STARLINK-4295,1 52996U 22076L   22350.42473224 -.00003139  00000-0 -17902-3 0  9998,2 52996  53.2184 348.0581 0002980  27.4796 332.6354 15.08861828 24817,6917.814,95.436,541.74,537.617,0.0
52996.0,STARLINK-4295,PAYLOAD,2022-12-16 16:33:09,15.08848197,0.0003062,53.2192,346.8682,30.0191,330.0976,1.9662e-06,-2.57e-06,0.0,0 STARLINK-4295,1 52996U 22076L   22350.68969484 -.00000257  00000-0  19662-5 0  9998,2 52996  53.2192 346.8682 0003062  30.0191 330.0976 15.08848197 25328,6917.855,95.437,541.839,537.602,0.0
52996.0,STARLINK-4295,PAYLOAD,2022-12-17 00:30:05,15.08833977,0.0003008,53.2189,345.3815,29.5978,330.5184,2.1871e-05,5.9e-07,0.0,0 STARLINK-4295,1 52996U 22076L   22351.02090244  .00000059  00000-0  21871-4 0  9999,2 52996  53.2189 345.3815 0003008  29.5978 330.5184 15.08833977 25373,6917.899,95.438,541.845,537.683,0.0
52996.0,STARLINK-4295,PAYLOAD,2022-12-17 10:02:25,15.08826734,0.0003,53.2192,343.5976,31.2015,328.9155,-3.7877e-05,-8.91e-06,0.0,0 STARLINK-4295,1 52996U 22076L   22351.41835068 -.00000891  00000-0 -37877-4 0  9992,2 52996  53.2192 343.5976 0003000  31.2015 328.9155 15.08826734 24965,6917.920999999999,95.438,541.861,537.711,0.0
52996.0,STARLINK-4295,PAYLOAD,2022-12-17 16:23:57,15.08835201,0.0002972,53.2187,342.4082,29.1694,330.9464,-1.8911e-05,-5.9e-06,0.0,0 STARLINK-4295,1 52996U 22076L   22351.68330572 -.00000590  00000-0 -18911-4 0  9995,2 52996  53.2187 342.4082 0002972  29.1694 330.9464 15.08835201 25473,6917.895,95.438,541.816,537.7040000000002,0.0
52996.0,STARLINK-4295,PAYLOAD,2022-12-18 08:17:49,15.0883295,0.0003044,53.2195,339.4347,30.3164,329.8004,-5.252600000000001e-05,-1.124e-05,0.0,0 STARLINK-4295,1 52996U 22076L   22352.34571028 -.00001124  00000-0 -52526-4 0  9996,2 52996  53.2195 339.4347 0003044  30.3164 329.8004 15.08832950 25104,6917.901999999999,95.438,541.873,537.661,0.0
52996.0,STARLINK-4295,PAYLOAD,2022-12-18 16:14:44,15.08835805,0.0003058,53.2199,337.9478,30.3665,329.7504,4.3672e-05,4.06e-06,0.0,0 STARLINK-4295,1 52996U 22076L   22352.67690670  .00000406  00000-0  43672-4 0  9999,2 52996  53.2199 337.9478 0003058  30.3665 329.7504 15.08835805 25158,6917.893,95.438,541.874,537.643,0.0
52996.0,STARLINK-4295,PAYLOAD,2022-12-19 08:08:35,15.08844117,0.0003067,53.2195,334.9735,28.2761,331.8397,0.00022481,3.292e-05,0.0,0 STARLINK-4295,1 52996U 22076L   22353.33929736  .00003292  00000-0  22481-3 0  9991,2 52996  53.2195 334.9735 0003067  28.2761 331.8397 15.08844117 25723,6917.868,95.437,541.855,537.611,0.0
52996.0,STARLINK-4295,PAYLOAD,2022-12-19 16:05:31,15.08842548,0.0002883,53.2183,333.4879,27.9021,332.2126,0.00025618,3.791e-05,0.0,0 STARLINK-4295,1 52996U 22076L   22353.67049781  .00003791  00000-0  25618-3 0  9990,2 52996  53.2183 333.4879 0002883  27.9021 332.2126 15.08842548 25308,6917.873000000001,95.437,541.732,537.743,0.0
52996.0,STARLINK-4295,PAYLOAD,2022-12-20 11:10:08,15.08844845,0.0002937,53.218,329.9204,26.5,333.6142,0.00015175,2.128e-05,0.0,0 STARLINK-4295,1 52996U 22076L   22354.46537610  .00002128  00000-0  15175-3 0  9991,2 52996  53.2180 329.9204 0002937  26.5000 333.6142 15.08844845 25427,6917.866,95.437,541.762,537.6990000000002,0.0
52996.0,STARLINK-4295,PAYLOAD,2022-12-21 07:50:10,15.08831937,0.0003039,53.2189,326.0552,26.5792,333.5356,-0.00014972,-2.67e-05,0.0,0 STARLINK-4295,1 52996U 22076L   22355.32651068 -.00002670  00000-0 -14972-3 0  9999,2 52996  53.2189 326.0552 0003039  26.5792 333.5356 15.08831937 26023,6917.905,95.438,541.872,537.668,0.0
52996.0,STARLINK-4295,PAYLOAD,2022-12-22 04:30:11,15.08831494,0.0002837,53.2206,322.1887,17.0099,343.0988,-9.4402e-05,-1.7899999999999998e-05,0.0,0 STARLINK-4295,1 52996U 22076L   22356.18763185 -.00001790  00000-0 -94402-4 0  9997,2 52996  53.2206 322.1887 0002837  17.0099 343.0988 15.08831494 25687,6917.906,95.438,541.734,537.809,0.0
52996.0,STARLINK-4295,PAYLOAD,2022-12-23 01:10:11,15.08833295,0.0002939,53.219,318.3224,26.036,334.0780000000001,0.00022346,3.269e-05,0.0,0 STARLINK-4295,1 52996U 22076L   22357.04874459  .00003269  00000-0  22346-3 0  9998,2 52996  53.2190 318.3224 0002939  26.0360 334.0780 15.08833295 26283,6917.901,95.438,541.799,537.7330000000002,0.0
52996.0,STARLINK-4295,PAYLOAD,2022-12-23 04:20:58,15.08824792,0.0002878,53.2183,317.7276,26.5831,333.5309,0.00012794,1.747e-05,0.0,0 STARLINK-4295,1 52996U 22076L   22357.18123029  .00001747  00000-0  12794-3 0  9998,2 52996  53.2183 317.7276 0002878  26.5831 333.5309 15.08824792 26301,6917.927,95.439,541.783,537.8009999999998,0.0
52996.0,STARLINK-4295,PAYLOAD,2022-12-24 07:22:31,15.0883907,0.0002973,53.2184,312.6726,28.2018,331.9134,6.6988e-05,7.78e-06,0.0,0 STARLINK-4295,1 52996U 22076L   22358.30731450  .00000778  00000-0  66988-4 0  9994,2 52996  53.2184 312.6726 0002973  28.2018 331.9134 15.08839070 26479,6917.8830000000025,95.438,541.805,537.692,0.0
52996.0,STARLINK-4295,PAYLOAD,2022-12-24 16:54:50,15.08849865,0.0002946,53.2183,310.8884,28.6783,331.4371,4.3503e-05,4.04e-06,0.0,0 STARLINK-4295,1 52996U 22076L   22358.70474895  .00000404  00000-0  43503-4 0  9999,2 52996  53.2183 310.8884 0002946  28.6783 331.4371 15.08849865 26534,6917.85,95.437,541.753,537.677,0.0
52996.0,STARLINK-4295,PAYLOAD,2022-12-24 21:40:59,15.08841726,0.0002945,53.2178,309.996,28.3711,331.7441,3.2684e-05,2.32e-06,0.0,0 STARLINK-4295,1 52996U 22076L   22358.90347106  .00000232  00000-0  32684-4 0  9992,2 52996  53.2178 309.9960 0002945  28.3711 331.7441 15.08841726 26099,6917.875,95.437,541.7769999999998,537.703,0.0
